{"type": "FeatureCollection", "features": [ {"type": "Feature", "properties": {"norad_id": 66836, "name": "STARLINK-35838", "group": "last-30-days", "lat": -44.56294755369507, "lon": 26.988563402154366, "alt_km": 383.71636784952807, "timestamp": "2025-12-17T07:00:45.613109+00:00", "meta": {"OBJECT_NAME": "STARLINK-35838", "OBJECT_ID": "2025-280R", "EPOCH": "2025-12-16T22:00:03.000096", "MEAN_MOTION": 15.64618529, "ECCENTRICITY": 0.00033641, "INCLINATION": 69.9991, "RA_OF_ASC_NODE": 187.0115, "ARG_OF_PERICENTER": 272.7323, "MEAN_ANOMALY": 2.2554, "EPHEMERIS_TYPE": 0, "CLASSIFICATION_TYPE": "U", "NORAD_CAT_ID": 66836, "ELEMENT_SET_NO": 999, "REV_AT_EPOCH": 356, "BSTAR": -0.023021707, "MEAN_MOTION_DOT": -0.01971371, "MEAN_MOTION_DDOT": 0}, "tle": {"line1": "1 66836U 25280R   25350.91670139 -.01971371  00000+0 -23022-1 0  9997", "line2": "2 66836  69.9991 187.0115 0003364 272.7323   2.2554 15.64618529  3568"}}, "geometry": {"type": "Point", "coordinates": [26.988563402154366, -44.56294755369507]}}, {"type": "Feature", "properties": {"norad_id": 66837, "name": "STARLINK-35729", "group": "last-30-days", "lat": -46.23495744051856, "lon": 28.315055432038942, "alt_km": 383.69738918021176, "timestamp": "2025-12-17T07:00:45.613119+00:00", "meta": {"OBJECT_NAME": "STARLINK-35729", "OBJECT_ID": "2025-280S", "EPOCH": "2025-12-16T22:00:03.000096", "MEAN_MOTION": 15.64610127, "ECCENTRICITY": 0.00033793, "INCLINATION": 69.9995, "RA_OF_ASC_NODE": 187.0087, "ARG_OF_PERICENTER": 272.7516, "MEAN_ANOMALY": 4.1541, "EPHEMERIS_TYPE": 0, "CLASSIFICATION_TYPE": "U", "NORAD_CAT_ID": 66837, "ELEMENT_SET_NO": 999, "REV_AT_EPOCH": 356, "BSTAR": -0.022806441, "MEAN_MOTION_DOT": -0.01954531, "MEAN_MOTION_DDOT": 0}, "tle": {"line1": "1 66837U 25280S   25350.91670139 -.01954531  00000+0 -22806-1 0  9996", "line2": "2 66837  69.9995 187.0087 0003379 272.7516   4.1541 15.64610127  3564"}}, "geometry": {"type": "Point", "coordinates": [28.315055432038942, -46.23495744051856]}}, {"type": "Feature", "properties": {"norad_id": 66838, "name": "STARLINK-35886", "group": "last-30-days", "lat": -49.52708895344776, "lon": 31.228335073505207, "alt_km": 383.78297707713955, "timestamp": "2025-12-17T07:00:45.613129+00:00", "meta": {"OBJECT_NAME": "STARLINK-35886", "OBJECT_ID": "2025-280T", "EPOCH": "2025-12-16T22:00:03.000096", "MEAN_MOTION": 15.64616116, "ECCENTRICITY": 0.00032749, "INCLINATION": 69.9996, "RA_OF_ASC_NODE": 187.0041, "ARG_OF_PERICENTER": 272.5175, "MEAN_ANOMALY": 8.2223, "EPHEMERIS_TYPE": 0, "CLASSIFICATION_TYPE": "U", "NORAD_CAT_ID": 66838, "ELEMENT_SET_NO": 999, "REV_AT_EPOCH": 356, "BSTAR": -0.022997714, "MEAN_MOTION_DOT": -0.01969308, "MEAN_MOTION_DDOT": 0}, "tle": {"line1": "1 66838U 25280T   25350.91670139 -.01969308  00000+0 -22998-1 0  9997", "line2": "2 66838  69.9996 187.0041 0003274 272.5175   8.2223 15.64616116  3565"}}, "geometry": {"type": "Point", "coordinates": [31.228335073505207, -49.52708895344776]}}, {"type": "Feature", "properties": {"norad_id": 66839, "name": "STARLINK-35717", "group": "last-30-days", "lat": -47.88807671485032, "lon": 29.72398386735157, "alt_km": 383.7061652394668, "timestamp": "2025-12-17T07:00:45.613139+00:00", "meta": {"OBJECT_NAME": "STARLINK-35717", "OBJECT_ID": "2025-280U", "EPOCH": "2025-12-16T22:00:03.000096", "MEAN_MOTION": 15.64616814, "ECCENTRICITY": 0.00034499, "INCLINATION": 69.9991, "RA_OF_ASC_NODE": 187.0064, "ARG_OF_PERICENTER": 273.3649, "MEAN_ANOMALY": 5.4568, "EPHEMERIS_TYPE": 0, "CLASSIFICATION_TYPE": "U", "NORAD_CAT_ID": 66839, "ELEMENT_SET_NO": 999, "REV_AT_EPOCH": 356, "BSTAR": -0.023004527, "MEAN_MOTION_DOT": -0.01970034, "MEAN_MOTION_DDOT": 0}, "tle": {"line1": "1 66839U 25280U   25350.91670139 -.01970034  00000+0 -23005-1 0  9996", "line2": "2 66839  69.9991 187.0064 0003449 273.3649   5.4568 15.64616814  3561"}}, "geometry": {"type": "Point", "coordinates": [29.72398386735157, -47.88807671485032]}}, {"type": "Feature", "properties": {"norad_id": 66840, "name": "STARLINK-35837", "group": "last-30-days", "lat": -51.14368688668137, "lon": 32.83696751257089, "alt_km": 383.76145443822315, "timestamp": "2025-12-17T07:00:45.613152+00:00", "meta": {"OBJECT_NAME": "STARLINK-35837", "OBJECT_ID": "2025-280V", "EPOCH": "2025-12-16T22:00:03.000096", "MEAN_MOTION": 15.6461397, "ECCENTRICITY": 0.00032354, "INCLINATION": 69.9991, "RA_OF_ASC_NODE": 187.0023, "ARG_OF_PERICENTER": 271.0253, "MEAN_ANOMALY": 11.6301, "EPHEMERIS_TYPE": 0, "CLASSIFICATION_TYPE": "U", "NORAD_CAT_ID": 66840, "ELEMENT_SET_NO": 999, "REV_AT_EPOCH": 356, "BSTAR": -0.022909394, "MEAN_MOTION_DOT": -0.01962451, "MEAN_MOTION_DDOT": 0}, "tle": {"line1": "1 66840U 25280V   25350.91670139 -.01962451  00000+0 -22909-1 0  9994", "line2": "2 66840  69.9991 187.0023 0003235 271.0253  11.6301 15.64613970  3561"}}, "geometry": {"type": "Point", "coordinates": [32.83696751257089, -51.14368688668137]}}, {"type": "Feature", "properties": {"norad_id": 66841, "name": "STARLINK-35715", "group": "last-30-days", "lat": -52.733057289698586, "lon": 34.556689840680015, "alt_km": 383.6913219974722, "timestamp": "2025-12-17T07:00:45.613164+00:00", "meta": {"OBJECT_NAME": "STARLINK-35715", "OBJECT_ID": "2025-280W", "EPOCH": "2025-12-16T22:00:03.000096", "MEAN_MOTION": 15.64615629, "ECCENTRICITY": 0.00034175, "INCLINATION": 69.9989, "RA_OF_ASC_NODE": 187, "ARG_OF_PERICENTER": 272.3345, "MEAN_ANOMALY": 12.2364, "EPHEMERIS_TYPE": 0, "CLASSIFICATION_TYPE": "U", "NORAD_CAT_ID": 66841, "ELEMENT_SET_NO": 999, "REV_AT_EPOCH": 356, "BSTAR": -0.022951469, "MEAN_MOTION_DOT": -0.01965914, "MEAN_MOTION_DDOT": 0}, "tle": {"line1": "1 66841U 25280W   25350.91670139 -.01965914  00000+0 -22951-1 0  9999", "line2": "2 66841  69.9989 187.0000 0003417 272.3345  12.2364 15.64615629  3561"}}, "geometry": {"type": "Point", "coordinates": [34.556689840680015, -52.733057289698586]}}, {"type": "Feature", "properties": {"norad_id": 66842, "name": "STARLINK-35769", "group": "last-30-days", "lat": -54.29716799463306, "lon": 36.40683284588012, "alt_km": 383.7386672884659, "timestamp": "2025-12-17T07:00:45.613174+00:00", "meta": {"OBJECT_NAME": "STARLINK-35769", "OBJECT_ID": "2025-280X", "EPOCH": "2025-12-16T22:00:03.000096", "MEAN_MOTION": 15.64616206, "ECCENTRICITY": 0.00033686, "INCLINATION": 69.9991, "RA_OF_ASC_NODE": 186.9977, "ARG_OF_PERICENTER": 273.1402, "MEAN_ANOMALY": 13.3467, "EPHEMERIS_TYPE": 0, "CLASSIFICATION_TYPE": "U", "NORAD_CAT_ID": 66842, "ELEMENT_SET_NO": 999, "REV_AT_EPOCH": 356, "BSTAR": -0.02297473, "MEAN_MOTION_DOT": -0.01967666, "MEAN_MOTION_DDOT": 0}, "tle": {"line1": "1 66842U 25280X   25350.91670139 -.01967666  00000+0 -22975-1 0  9992", "line2": "2 66842  69.9991 186.9977 0003368 273.1402  13.3467 15.64616206  3562"}}, "geometry": {"type": "Point", "coordinates": [36.40683284588012, -54.29716799463306]}}, {"type": "Feature", "properties": {"norad_id": 66843, "name": "STARLINK-35997", "group": "last-30-days", "lat": -57.331644604879095, "lon": 40.56218323991249, "alt_km": 383.7250120229701, "timestamp": "2025-12-17T07:00:45.613186+00:00", "meta": {"OBJECT_NAME": "STARLINK-35997", "OBJECT_ID": "2025-280Y", "EPOCH": "2025-12-16T22:00:03.000096", "MEAN_MOTION": 15.64617933, "ECCENTRICITY": 0.00033477, "INCLINATION": 69.9992, "RA_OF_ASC_NODE": 186.9922, "ARG_OF_PERICENTER": 272.1654, "MEAN_ANOMALY": 18.155, "EPHEMERIS_TYPE": 0, "CLASSIFICATION_TYPE": "U", "NORAD_CAT_ID": 66843, "ELEMENT_SET_NO": 999, "REV_AT_EPOCH": 356, "BSTAR": -0.023014802, "MEAN_MOTION_DOT": -0.01970792, "MEAN_MOTION_DDOT": 0}, "tle": {"line1": "1 66843U 25280Y   25350.91670139 -.01970792  00000+0 -23015-1 0  9993", "line2": "2 66843  69.9992 186.9922 0003347 272.1654  18.1550 15.64617933  3563"}}, "geometry": {"type": "Point", "coordinates": [40.56218323991249, -57.331644604879095]}}, {"type": "Feature", "properties": {"norad_id": 66844, "name": "STARLINK-36073", "group": "last-30-days", "lat": -55.83246757621871, "lon": 38.404036096157114, "alt_km": 383.72866479315417, "timestamp": "2025-12-17T07:00:45.613198+00:00", "meta": {"OBJECT_NAME": "STARLINK-36073", "OBJECT_ID": "2025-280Z", "EPOCH": "2025-12-16T22:00:03.000096", "MEAN_MOTION": 15.64617989, "ECCENTRICITY": 0.00033746, "INCLINATION": 69.9993, "RA_OF_ASC_NODE": 186.9952, "ARG_OF_PERICENTER": 272.5172, "MEAN_ANOMALY": 15.8886, "EPHEMERIS_TYPE": 0, "CLASSIFICATION_TYPE": "U", "NORAD_CAT_ID": 66844, "ELEMENT_SET_NO": 999, "REV_AT_EPOCH": 356, "BSTAR": -0.023054308, "MEAN_MOTION_DOT": -0.01973804, "MEAN_MOTION_DDOT": 0}, "tle": {"line1": "1 66844U 25280Z   25350.91670139 -.01973804  00000+0 -23054-1 0  9994", "line2": "2 66844  69.9993 186.9952 0003374 272.5172  15.8886 15.64617989  3564"}}, "geometry": {"type": "Point", "coordinates": [38.404036096157114, -55.83246757621871]}}, {"type": "Feature", "properties": {"norad_id": 66845, "name": "STARLINK-36068", "group": "last-30-days", "lat": -61.56125597543066, "lon": 48.206580934850166, "alt_km": 383.67591200029165, "timestamp": "2025-12-17T07:00:45.613209+00:00", "meta": {"OBJECT_NAME": "STARLINK-36068", "OBJECT_ID": "2025-280AA", "EPOCH": "2025-12-16T22:00:03.000096", "MEAN_MOTION": 15.64612811, "ECCENTRICITY": 0.00034241, "INCLINATION": 69.9991, "RA_OF_ASC_NODE": 186.9855, "ARG_OF_PERICENTER": 273.6646, "MEAN_ANOMALY": 22.4071, "EPHEMERIS_TYPE": 0, "CLASSIFICATION_TYPE": "U", "NORAD_CAT_ID": 66845, "ELEMENT_SET_NO": 999, "REV_AT_EPOCH": 357, "BSTAR": -0.022927615, "MEAN_MOTION_DOT": -0.01963922, "MEAN_MOTION_DDOT": 0}, "tle": {"line1": "1 66845U 25280AA  25350.91670139 -.01963922  00000+0 -22928-1 0  9994", "line2": "2 66845  69.9991 186.9855 0003424 273.6646  22.4071 15.64612811  3579"}}, "geometry": {"type": "Point", "coordinates": [48.206580934850166, -61.56125597543066]}}]}